{
  "type": "FeatureCollection",
  "features": [
    {
      "type": "Feature",
      "properties": {
        "norad_id": 66690,
        "name": "TRANSPORTER-15 AA",
        "group": "last-30-days",
        "lat": 12.16032538932721,
        "lon": 66.21055770055597,
        "alt_km": 517.4083956377335,
        "timestamp": "2025-12-22T05:49:02.185093+00:00",
        "meta_object_name": "TRANSPORTER-15 AA",
        "meta_object_id": "2025-276AA",
        "meta_epoch": "2025-12-21T18:40:55.704864",
        "meta_mean_motion": 15.17043444,
        "meta_eccentricity": 0.0003593,
        "meta_inclination": 97.4399,
        "meta_ra_of_asc_node": 67.3687,
        "meta_arg_of_pericenter": 252.9568,
        "meta_mean_anomaly": 107.1272,
        "meta_ephemeris_type": 0,
        "meta_classification_type": "U",
        "meta_norad_cat_id": 66690,
        "meta_element_set_no": 999,
        "meta_rev_at_epoch": 349,
        "meta_bstar": 0.00032714,
        "meta_mean_motion_dot": 6.408e-05,
        "meta_mean_motion_ddot": 0,
        "tle_line1": "1 66690U 25276AA  25355.77842251  .00006408  00000+0  32714-3 0  9992",
        "tle_line2": "2 66690  97.4399  67.3687 0003593 252.9568 107.1272 15.17043444  3493"
      },
      "geometry": {
        "type": "Point",
        "coordinates": [
          66.21055770055597,
          12.16032538932721
        ]
      }
    },
    {
      "type": "Feature",
      "properties": {
        "norad_id": 66691,
        "name": "TRANSPORTER-15 AB",
        "group": "last-30-days",
        "lat": 22.47643317882875,
        "lon": 64.73519231567705,
        "alt_km": 515.4647869441333,
        "timestamp": "2025-12-22T05:49:02.185103+00:00",
        "meta_object_name": "TRANSPORTER-15 AB",
        "meta_object_id": "2025-276AB",
        "meta_epoch": "2025-12-21T18:38:16.976832",
        "meta_mean_motion": 15.17270049,
        "meta_eccentricity": 0.0003703,
        "meta_inclination": 97.4424,
        "meta_ra_of_asc_node": 67.3779,
        "meta_arg_of_pericenter": 254.5474,
        "meta_mean_anomaly": 105.535,
        "meta_ephemeris_type": 0,
        "meta_classification_type": "U",
        "meta_norad_cat_id": 66691,
        "meta_element_set_no": 999,
        "meta_rev_at_epoch": 349,
        "meta_bstar": 0.00046573,
        "meta_mean_motion_dot": 9.213e-05,
        "meta_mean_motion_ddot": 0,
        "tle_line1": "1 66691U 25276AB  25355.77658538  .00009213  00000+0  46573-3 0  9991",
        "tle_line2": "2 66691  97.4424  67.3779 0003703 254.5474 105.5350 15.17270049  3494"
      },
      "geometry": {
        "type": "Point",
        "coordinates": [
          64.73519231567705,
          22.47643317882875
        ]
      }
    },
    {
      "type": "Feature",
      "properties": {
        "norad_id": 66692,
        "name": "TRANSPORTER-15 AC",
        "group": "last-30-days",
        "lat": 38.35428879465322,
        "lon": 61.90896667857246,
        "alt_km": 513.6343747487435,
        "timestamp": "2025-12-22T05:49:02.185112+00:00",
        "meta_object_name": "TRANSPORTER-15 AC",
        "meta_object_id": "2025-276AC",
        "meta_epoch": "2025-12-21T18:33:56.289888",
        "meta_mean_motion": 15.17114883,
        "meta_eccentricity": 0.0001987,
        "meta_inclination": 97.4425,
        "meta_ra_of_asc_node": 67.3859,
        "meta_arg_of_pericenter": 209.7052,
        "meta_mean_anomaly": 150.4069,
        "meta_ephemeris_type": 0,
        "meta_classification_type": "U",
        "meta_norad_cat_id": 66692,
        "meta_element_set_no": 999,
        "meta_rev_at_epoch": 349,
        "meta_bstar": -0.0096276,
        "meta_mean_motion_dot": -0.00186003,
        "meta_mean_motion_ddot": 0,
        "tle_line1": "1 66692U 25276AC  25355.77356817 -.00186003  00000+0 -96276-2 0  9996",
        "tle_line2": "2 66692  97.4425  67.3859 0001987 209.7052 150.4069 15.17114883  3490"
      },
      "geometry": {
        "type": "Point",
        "coordinates": [
          61.90896667857246,
          38.35428879465322
        ]
      }
    },
    {
      "type": "Feature",
      "properties": {
        "norad_id": 66693,
        "name": "TRANSPORTER-15 AD",
        "group": "last-30-days",
        "lat": 38.238019159499494,
        "lon": 61.918397815053005,
        "alt_km": 511.5340918901893,
        "timestamp": "2025-12-22T05:49:02.185124+00:00",
        "meta_object_name": "TRANSPORTER-15 AD",
        "meta_object_id": "2025-276AD",
        "meta_epoch": "2025-12-21T18:34:12.965088",
        "meta_mean_motion": 15.17568273,
        "meta_eccentricity": 0.0003286,
        "meta_inclination": 97.4379,
        "meta_ra_of_asc_node": 67.3669,
        "meta_arg_of_pericenter": 280.0271,
        "meta_mean_anomaly": 80.0591,
        "meta_ephemeris_type": 0,
        "meta_classification_type": "U",
        "meta_norad_cat_id": 66693,
        "meta_element_set_no": 999,
        "meta_rev_at_epoch": 349,
        "meta_bstar": 0.00063597,
        "meta_mean_motion_dot": 0.00012719,
        "meta_mean_motion_ddot": 0,
        "tle_line1": "1 66693U 25276AD  25355.77376117  .00012719  00000+0  63597-3 0  9993",
        "tle_line2": "2 66693  97.4379  67.3669 0003286 280.0271  80.0591 15.17568273  3491"
      },
      "geometry": {
        "type": "Point",
        "coordinates": [
          61.918397815053005,
          38.238019159499494
        ]
      }
    },
    {
      "type": "Feature",
      "properties": {
        "norad_id": 66694,
        "name": "YAM-9",
        "group": "last-30-days",
        "lat": 47.970974437380015,
        "lon": 59.50720652763168,
        "alt_km": 509.791952679072,
        "timestamp": "2025-12-22T05:49:02.185135+00:00",
        "meta_object_name": "YAM-9",
        "meta_object_id": "2025-276AE",
        "meta_epoch": "2025-12-21T18:31:35.812992",
        "meta_mean_motion": 15.17538635,
        "meta_eccentricity": 0.0001429,
        "meta_inclination": 97.4417,
        "meta_ra_of_asc_node": 67.3833,
        "meta_arg_of_pericenter": 268.9826,
        "meta_mean_anomaly": 91.1244,
        "meta_ephemeris_type": 0,
        "meta_classification_type": "U",
        "meta_norad_cat_id": 66694,
        "meta_element_set_no": 999,
        "meta_rev_at_epoch": 349,
        "meta_bstar": 0.00049549,
        "meta_mean_motion_dot": 9.882e-05,
        "meta_mean_motion_ddot": 0,
        "tle_line1": "1 66694U 25276AE  25355.77194228  .00009882  00000+0  49549-3 0  9993",
        "tle_line2": "2 66694  97.4417  67.3833 0001429 268.9826  91.1244 15.17538635  3493"
      },
      "geometry": {
        "type": "Point",
        "coordinates": [
          59.50720652763168,
          47.970974437380015
        ]
      }
    },
    {
      "type": "Feature",
      "properties": {
        "norad_id": 66695,
        "name": "IRIDE FM1",
        "group": "last-30-days",
        "lat": 73.64817225708134,
        "lon": -85.68483127265199,
        "alt_km": 503.48133014360155,
        "timestamp": "2025-12-22T05:49:02.185147+00:00",
        "meta_object_name": "IRIDE FM1",
        "meta_object_id": "2025-276AF",
        "meta_epoch": "2025-12-21T19:52:03.387072",
        "meta_mean_motion": 15.18233992,
        "meta_eccentricity": 0.0001258,
        "meta_inclination": 97.4407,
        "meta_ra_of_asc_node": 67.4565,
        "meta_arg_of_pericenter": 148.4845,
        "meta_mean_anomaly": 211.6464,
        "meta_ephemeris_type": 0,
        "meta_classification_type": "U",
        "meta_norad_cat_id": 66695,
        "meta_element_set_no": 999,
        "meta_rev_at_epoch": 350,
        "meta_bstar": 0.00052185,
        "meta_mean_motion_dot": 0.00010622,
        "meta_mean_motion_ddot": 0,
        "tle_line1": "1 66695U 25276AF  25355.82781698  .00010622  00000+0  52185-3 0  9997",
        "tle_line2": "2 66695  97.4407  67.4565 0001258 148.4845 211.6464 15.18233992  3503"
      },
      "geometry": {
        "type": "Point",
        "coordinates": [
          -85.68483127265199,
          73.64817225708134
        ]
      }
    },
    {
      "type": "Feature",
      "properties": {
        "norad_id": 66696,
        "name": "IRIDE FM2",
        "group": "last-30-days",
        "lat": 35.007645065914765,
        "lon": 62.57993331791195,
        "alt_km": 509.37554235322114,
        "timestamp": "2025-12-22T05:49:02.185157+00:00",
        "meta_object_name": "IRIDE FM2",
        "meta_object_id": "2025-276AG",
        "meta_epoch": "2025-12-21T18:34:59.863872",
        "meta_mean_motion": 15.17369038,
        "meta_eccentricity": 0.0005677,
        "meta_inclination": 97.4395,
        "meta_ra_of_asc_node": 67.3714,
        "meta_arg_of_pericenter": 340.4276,
        "meta_mean_anomaly": 19.6738,
        "meta_ephemeris_type": 0,
        "meta_classification_type": "U",
        "meta_norad_cat_id": 66696,
        "meta_element_set_no": 999,
        "meta_rev_at_epoch": 349,
        "meta_bstar": 0.00020021,
        "meta_mean_motion_dot": 3.932e-05,
        "meta_mean_motion_ddot": 0,
        "tle_line1": "1 66696U 25276AG  25355.77430398  .00003932  00000+0  20021-3 0  9990",
        "tle_line2": "2 66696  97.4395  67.3714 0005677 340.4276  19.6738 15.17369038  3494"
      },
      "geometry": {
        "type": "Point",
        "coordinates": [
          62.57993331791195,
          35.007645065914765
        ]
      }
    }
  ]
}